COMMENT,ORIGINATOR,NORAD_CAT_ID,OBJECT_NAME,OBJECT_TYPE,CLASSIFICATION_TYPE,INTLDES,EPOCH,EPOCH_MICROSECONDS,MEAN_MOTION,ECCENTRICITY,INCLINATION,RA_OF_ASC_NODE,ARG_OF_PERICENTER,MEAN_ANOMALY,EPHEMERIS_TYPE,ELEMENT_SET_NO,REV_AT_EPOCH,BSTAR,MEAN_MOTION_DOT,MEAN_MOTION_DDOT,FILE,TLE_LINE0,TLE_LINE1,TLE_LINE2,OBJECT_ID,OBJECT_NUMBER,SEMIMAJOR_AXIS,PERIOD,APOGEE,PERIGEE,DECAYED,date
GENERATED VIA SPACETRACK.ORG API,18 SPCS,52180,SPACEBEE-134,PAYLOAD,U,22033Z,2023/4/15 10:52,179648,15.39921266,0.0004716,97.3481,188.4331,37.8277,322.3299,0,999,5779,0.0018569,0.00074458,0,3887974,0 SPACEBEE-134,1 52180U 22033Z   23105.45293032  .00074458  00000-0  18569-2 0  9994,2 52180  97.3481 188.4331 0004716  37.8277 322.3299 15.39921266 57792,2022-033Z,52180,6824.479,93.511,449.562,443.126,1,
GENERATED VIA SPACETRACK.ORG API,18 SPCS,52180,SPACEBEE-134,PAYLOAD,U,22033Z,2023/4/15 18:40,323648,15.39974756,0.0004713,97.3482,188.7593,35.7672,324.3889,0,999,5784,0.0019016,0.00076406,0,3888171,0 SPACEBEE-134,1 52180U 22033Z   23105.77782782  .00076406  00000-0  19016-2 0  9997,2 52180  97.3482 188.7593 0004713  35.7672 324.3889 15.39974756 57844,2022-033Z,52180,6824.321,93.508,449.402,442.97,1,
GENERATED VIA SPACETRACK.ORG API,18 SPCS,52180,SPACEBEE-134,PAYLOAD,U,22033Z,2023/4/16 5:35,184288,15.40052481,0.0004643,97.3481,189.216,34.7088,325.446,0,999,5789,0.001749,0.00070391,0,3888372,0 SPACEBEE-134,1 52180U 22033Z   23106.23266417  .00070391  00000-0  17490-2 0  9992,2 52180  97.3481 189.2160 0004643  34.7088 325.4460 15.40052481 57897,2022-033Z,52180,6824.091,93.503,449.125,442.788,1,
GENERATED VIA SPACETRACK.ORG API,18 SPCS,52180,SPACEBEE-134,PAYLOAD,U,22033Z,2023/4/16 5:35,184288,15.40052481,0.0004643,97.3481,189.216,34.7088,325.446,0,999,5791,0.001749,0.00070391,0,3888626,0 SPACEBEE-134,1 52180U 22033Z   23106.23266417  .00070391  00000-0  17490-2 0  9992,2 52180  97.3481 189.2160 0004643  34.7088 325.4460 15.40052481 57910,2022-033Z,52180,6824.091,93.503,449.125,442.788,1,
GENERATED VIA SPACETRACK.ORG API,18 SPCS,52180,SPACEBEE-134,PAYLOAD,U,22033Z,2023/4/16 18:03,910688,15.40129118,0.0004694,97.348,189.7384,31.8297,328.3232,0,999,5799,0.0018934,0.00076462,0,3888799,0 SPACEBEE-134,1 52180U 22033Z   23106.75245267  .00076462  00000-0  18934-2 0  9998,2 52180  97.3480 189.7384 0004694  31.8297 328.3232 15.40129118 57997,2022-033Z,52180,6823.865,93.499,448.933,442.527,1,
GENERATED VIA SPACETRACK.ORG API,18 SPCS,52180,SPACEBEE-134,PAYLOAD,U,22033Z,2023/4/17 12:46,42048,15.40248182,0.0004614,97.3483,190.5214,27.5572,332.5918,0,999,5811,0.0019628,0.0007961,0,3889215,0 SPACEBEE-134,1 52180U 22033Z   23107.53208382  .00079610  00000-0  19628-2 0  9991,2 52180  97.3483 190.5214 0004614  27.5572 332.5918 15.40248182 58118,2022-033Z,52180,6823.513,93.491,448.527,442.23,1,
GENERATED VIA SPACETRACK.ORG API,18 SPCS,52180,SPACEBEE-134,PAYLOAD,U,22033Z,2023/4/17 17:26,297504,15.40278743,0.000462,97.3483,190.7172,26.1754,333.9725,0,999,5814,0.0019148,0.0007772,0,3889391,0 SPACEBEE-134,1 52180U 22033Z   23107.72698261  .00077720  00000-0  19148-2 0  9998,2 52180  97.3483 190.7172 0004620  26.1754 333.9725 15.40278743 58147,2022-033Z,52180,6823.423,93.49,448.44,442.136,1,
GENERATED VIA SPACETRACK.ORG API,18 SPCS,52180,SPACEBEE-134,PAYLOAD,U,22033Z,2023/4/18 4:21,569632,15.40347855,0.0004518,97.3483,191.1736,24.37,335.7759,0,999,5821,0.0017497,0.00071111,0,3889684,0 SPACEBEE-134,1 52180U 22033Z   23108.18173113  .00071111  00000-0  17497-2 0  9996,2 52180  97.3483 191.1736 0004518  24.3700 335.7759 15.40347855 58211,2022-033Z,52180,6823.219,93.485,448.167,442.001,1,
GENERATED VIA SPACETRACK.ORG API,18 SPCS,52180,SPACEBEE-134,PAYLOAD,U,22033Z,2023/4/18 15:16,244224,15.40411092,0.0004622,97.3484,191.631,22.2403,337.9043,0,999,5826,0.0019075,0.00077762,0,3889813,0 SPACEBEE-134,1 52180U 22033Z   23108.63646116  .00077762  00000-0  19075-2 0  9996,2 52180  97.3484 191.6310 0004622  22.2403 337.9043 15.40411092 58268,2022-033Z,52180,6823.032,93.482,448.051,441.744,1,
GENERATED VIA SPACETRACK.ORG API,18 SPCS,52180,SPACEBEE-134,PAYLOAD,U,22033Z,2023/4/18 16:50,798592,15.40423504,0.0004621,97.3484,191.6962,21.8827,338.2616,0,999,5829,0.00217,0.00088635,0,3889987,0 SPACEBEE-134,1 52180U 22033Z   23108.70142128  .00088635  00000-0  21700-2 0  9997,2 52180  97.3484 191.6962 0004621  21.8827 338.2616 15.40423504 58299,2022-033Z,52180,6822.995,93.481,448.013,441.708,1,
GENERATED VIA SPACETRACK.ORG API,18 SPCS,52180,SPACEBEE-134,PAYLOAD,U,22033Z,2023/4/19 5:18,628224,15.40506544,0.0004508,97.3484,192.218,19.8931,340.2491,0,999,5837,0.0019602,0.00080188,0,3890383,0 SPACEBEE-134,1 52180U 22033Z   23109.22108366  .00080188  00000-0  19602-2 0  9994,2 52180  97.3484 192.2180 0004508  19.8931 340.2491 15.40506544 58374,2022-033Z,52180,6822.75,93.476,447.691,441.54,1,
GENERATED VIA SPACETRACK.ORG API,18 SPCS,52180,SPACEBEE-134,PAYLOAD,U,22033Z,2023/4/19 19:20,123008,15.40590952,0.0004547,97.348,192.8056,16.7677,343.3719,0,999,5846,0.0019595,0.00080385,0,3890520,0 SPACEBEE-134,1 52180U 22033Z   23109.80567272  .00080385  00000-0  19595-2 0  9993,2 52180  97.3480 192.8056 0004547  16.7677 343.3719 15.40590952 58467,2022-033Z,52180,6822.501,93.471,447.468,441.264,1,
GENERATED VIA SPACETRACK.ORG API,18 SPCS,52180,SPACEBEE-134,PAYLOAD,U,22033Z,2023/4/19 19:20,123008,15.40590952,0.0004547,97.348,192.8056,16.7677,343.3719,0,999,5844,0.0019595,0.00080385,0,3890794,0 SPACEBEE-134,1 52180U 22033Z   23109.80567272  .00080385  00000-0  19595-2 0  9993,2 52180  97.3480 192.8056 0004547  16.7677 343.3719 15.40590952 58445,2022-033Z,52180,6822.501,93.471,447.468,441.264,1,
GENERATED VIA SPACETRACK.ORG API,18 SPCS,52180,SPACEBEE-134,PAYLOAD,U,22033Z,2023/4/20 10:55,332544,15.4067721,0.0004445,97.3479,193.4582,13.194,346.9422,0,999,5856,0.0015644,0.00064207,0,3890827,0 SPACEBEE-134,1 52180U 22033Z   23110.45517746  .00064207  00000-0  15644-2 0  9993,2 52180  97.3479 193.4582 0004445  13.1940 346.9422 15.40677210 58561,2022-033Z,52180,6822.246,93.465,447.144,441.079,1,
GENERATED VIA SPACETRACK.ORG API,18 SPCS,52180,SPACEBEE-134,PAYLOAD,U,22033Z,2023/4/20 10:55,332544,15.4067721,0.0004445,97.3479,193.4582,13.194,346.9422,0,999,5854,0.0015644,0.00064207,0,3891036,0 SPACEBEE-134,1 52180U 22033Z   23110.45517746  .00064207  00000-0  15644-2 0  9993,2 52180  97.3479 193.4582 0004445  13.1940 346.9422 15.40677210 58549,2022-033Z,52180,6822.246,93.465,447.144,441.079,1,
GENERATED VIA SPACETRACK.ORG API,18 SPCS,52180,SPACEBEE-134,PAYLOAD,U,22033Z,2023/4/21 11:51,652704,15.40805143,0.0004356,97.3475,194.5033,9.122,351.0104,0,999,5870,0.001481,0.0006101,0,3891490,0 SPACEBEE-134,1 52180U 22033Z   23111.49431311  .00061010  00000-0  14810-2 0  9994,2 52180  97.3475 194.5033 0004356   9.1220 351.0104 15.40805143 58705,2022-033Z,52180,6821.869,93.458,446.705,440.762,1,
GENERATED VIA SPACETRACK.ORG API,18 SPCS,52180,SPACEBEE-134,PAYLOAD,U,22033Z,2023/4/21 11:51,652704,15.40805143,0.0004356,97.3475,194.5033,9.122,351.0104,0,999,5872,0.001481,0.0006101,0,3891529,0 SPACEBEE-134,1 52180U 22033Z   23111.49431311  .00061010  00000-0  14810-2 0  9994,2 52180  97.3475 194.5033 0004356   9.1220 351.0104 15.40805143 58727,2022-033Z,52180,6821.869,93.458,446.705,440.762,1,
GENERATED VIA SPACETRACK.ORG API,18 SPCS,52180,SPACEBEE-134,PAYLOAD,U,22033Z,2023/4/21 14:58,828160,15.40820175,0.0004379,97.3474,194.634,8.253,351.8788,0,999,5874,0.0014836,0.00061149,0,3891716,0 SPACEBEE-134,1 52180U 22033Z   23111.62419940  .00061149  00000-0  14836-2 0  9994,2 52180  97.3474 194.6340 0004379   8.2530 351.8788 15.40820175 58747,2022-033Z,52180,6821.824,93.457,446.677,440.702,1,
GENERATED VIA SPACETRACK.ORG API,18 SPCS,52180,SPACEBEE-134,PAYLOAD,U,22033Z,2023/4/22 5:00,891872,15.40906287,0.0004267,97.3472,195.2213,5.0574,355.0715,0,999,5883,0.0016224,0.00067119,0,3892071,0 SPACEBEE-134,1 52180U 22033Z   23112.20866773  .00067119  00000-0  16224-2 0  9995,2 52180  97.3472 195.2213 0004267   5.0574 355.0715 15.40906287 58835,2022-033Z,52180,6821.57,93.451,446.346,440.524,1,
GENERATED VIA SPACETRACK.ORG API,18 SPCS,52180,SPACEBEE-134,PAYLOAD,U,22033Z,2023/4/22 19:02,386912,15.40977689,0.000433,97.3468,195.8094,1.6264,358.4996,0,999,5890,0.0013813,0.00057194,0,3892482,0 SPACEBEE-134,1 52180U 22033Z   23112.79310633  .00057194  00000-0  13813-2 0  9991,2 52180  97.3468 195.8094 0004330   1.6264 358.4996 15.40977689 58902,2022-033Z,52180,6821.36,93.447,446.178,440.271,1,
GENERATED VIA SPACETRACK.ORG API,18 SPCS,52180,SPACEBEE-134,PAYLOAD,U,22033Z,2023/4/22 19:02,386912,15.40977689,0.000433,97.3468,195.8094,1.6264,358.4996,0,999,5892,0.0013813,0.00057194,0,3892688,0 SPACEBEE-134,1 52180U 22033Z   23112.79310633  .00057194  00000-0  13813-2 0  9991,2 52180  97.3468 195.8094 0004330   1.6264 358.4996 15.40977689 58924,2022-033Z,52180,6821.36,93.447,446.178,440.271,1,
GENERATED VIA SPACETRACK.ORG API,18 SPCS,52180,SPACEBEE-134,PAYLOAD,U,22033Z,2023/4/23 15:17,226336,15.41082969,0.0004355,97.3467,196.6586,358.2743,1.8488,0,999,5905,0.0016743,0.00069698,0,3892831,0 SPACEBEE-134,1 52180U 22033Z   23113.63724799  .00069698  00000-0  16743-2 0  9994,2 52180  97.3467 196.6586 0004355 358.2743   1.8488 15.41082969 59057,2022-033Z,52180,6821.049,93.441,445.884,439.943,1,
GENERATED VIA SPACETRACK.ORG API,18 SPCS,52180,SPACEBEE-134,PAYLOAD,U,22033Z,2023/4/24 5:19,130784,15.41254185,0.0004249,97.3465,197.2459,355.1752,4.9453,0,999,5912,0.0058193,0.00249586,0,3893060,0 SPACEBEE-134,1 52180U 22033Z   23114.22161031  .00249586  00000-0  58193-2 0  9995,2 52180  97.3465 197.2459 0004249 355.1752   4.9453 15.41254185 59124,2022-033Z,52180,6820.544,93.43,445.307,439.511,1,
